NORAD_CAT_ID,OBJECT_NAME,OBJECT_TYPE,EPOCH,MEAN_MOTION,ECCENTRICITY,INCLINATION,RA_OF_ASC_NODE,ARG_OF_PERICENTER,MEAN_ANOMALY,BSTAR,MEAN_MOTION_DOT,MEAN_MOTION_DDOT,TLE_LINE0,TLE_LINE1,TLE_LINE2,SEMIMAJOR_AXIS,PERIOD,APOGEE,PERIGEE,DECAYED
54176.0,STARLINK-5154,PAYLOAD,2024-02-17 13:17:14,15.08841966,0.0001124,53.2151,135.9558,97.7085,262.4035,0.00021348,3.112e-05,0.0,0 STARLINK-5154,1 54176U 22141V   24048.55363610  .00003112  00000-0  21348-3 0  9998,2 54176  53.2151 135.9558 0001124  97.7085 262.4035 15.08841966 72461,6917.874,95.437,540.517,538.962,0.0
54176.0,STARLINK-5154,PAYLOAD,2024-02-17 14:52:37,15.08846404,0.0001145,53.2151,135.6581,101.2421,258.87,0.00028398,4.235e-05,0.0,0 STARLINK-5154,1 54176U 22141V   24048.61987481  .00004235  00000-0  28398-3 0  9992,2 54176  53.2151 135.6581 0001145 101.2421 258.8700 15.08846404 72473,6917.861,95.437,540.518,538.934,0.0
54176.0,STARLINK-5154,PAYLOAD,2024-02-17 22:49:33,15.08832544,0.0001422,53.2153,134.1722,86.5408,273.5746,1.3794e-05,-6.8e-07,0.0,0 STARLINK-5154,1 54176U 22141V   24048.95108040 -.00000068  00000-0  13794-4 0  9991,2 54176  53.2153 134.1722 0001422  86.5408 273.5746 15.08832544 72524,6917.903,95.438,540.752,538.784,0.0
54176.0,STARLINK-5154,PAYLOAD,2024-02-18 13:08:01,15.08840511,0.0001526,53.2153,131.4974,83.2792,276.8374,0.00024897,3.677e-05,0.0,0 STARLINK-5154,1 54176U 22141V   24049.54724183  .00003677  00000-0  24897-3 0  9992,2 54176  53.2153 131.4974 0001526  83.2792 276.8374 15.08840511 72614,6917.879,95.438,540.799,538.688,0.0
54176.0,STARLINK-5154,PAYLOAD,2024-02-18 22:40:20,15.08842204,0.0001587,53.2153,129.7135,81.1043,279.0128,0.00047147,7.224e-05,0.0,0 STARLINK-5154,1 54176U 22141V   24049.94468374  .00007224  00000-0  47147-3 0  9998,2 54176  53.2153 129.7135 0001587  81.1043 279.0128 15.08842204 72675,6917.874,95.437,540.837,538.641,0.0
54176.0,STARLINK-5154,PAYLOAD,2024-02-19 11:23:25,15.08842059,0.0001349,53.2157,127.3305,97.6901,262.4244,0.0002292,3.362e-05,0.0,0 STARLINK-5154,1 54176U 22141V   24050.47460257  .00003362  00000-0  22920-3 0  9991,2 54176  53.2157 127.3305 0001349  97.6901 262.4244 15.08842059 72755,6917.874,95.437,540.672,538.806,0.0
54176.0,STARLINK-5154,PAYLOAD,2024-02-19 22:31:07,15.08844968,0.0001391,53.214,125.252,91.2306,268.8846,0.00022594,3.31e-05,0.0,0 STARLINK-5154,1 54176U 22141V   24050.93828171  .00003310  00000-0  22594-3 0  9995,2 54176  53.2140 125.2520 0001391  91.2306 268.8846 15.08844968 72826,6917.865,95.437,540.692,538.768,0.0
54176.0,STARLINK-5154,PAYLOAD,2024-02-20 11:14:12,15.08842287,0.0001674,53.2157,122.8725,97.4331,262.6851,9.026e-05,1.149e-05,0.0,0 STARLINK-5154,1 54176U 22141V   24051.46820343  .00001149  00000-0  90260-4 0  9991,2 54176  53.2157 122.8725 0001674  97.4331 262.6851 15.08842287 72903,6917.873,95.437,540.896,538.58,0.0
54176.0,STARLINK-5154,PAYLOAD,2024-02-21 11:04:59,15.08844164,0.0001702,53.216,118.413,99.9701,260.1483,0.00010251,1.344e-05,0.0,0 STARLINK-5154,1 54176U 22141V   24052.46180192  .00001344  00000-0  10251-3 0  9991,2 54176  53.2160 118.4130 0001702  99.9701 260.1483 15.08844164 73055,6917.868,95.437,540.91,538.555,0.0
54176.0,STARLINK-5154,PAYLOAD,2024-02-22 04:34:14,15.08836087,0.0001674,53.2164,115.1417,101.6076,258.5104,6.2433e-05,7.06e-06,0.0,0 STARLINK-5154,1 54176U 22141V   24053.19044686  .00000706  00000-0  62433-4 0  9990,2 54176  53.2164 115.1417 0001674 101.6076 258.5104 15.08836087 73163,6917.892,95.438,540.915,538.599,0.0
54176.0,STARLINK-5154,PAYLOAD,2024-02-22 10:55:46,15.08837812,0.0001574,53.2176,113.9555,100.4134,259.7035,9.983e-05,1.301e-05,0.0,0 STARLINK-5154,1 54176U 22141V   24053.45540488  .00001301  00000-0  99830-4 0  9993,2 54176  53.2176 113.9555 0001574 100.4134 259.7035 15.08837812 73204,6917.887,95.438,540.841,538.663,0.0
54176.0,STARLINK-5154,PAYLOAD,2024-02-22 20:28:05,15.08836887,0.0001669,53.2173,112.1698,108.8166,251.3007,3.7941e-05,3.16e-06,0.0,0 STARLINK-5154,1 54176U 22141V   24053.85284671  .00000316  00000-0  37941-4 0  9996,2 54176  53.2173 112.1698 0001669 108.8166 251.3007 15.08836887 73266,6917.89,95.438,540.91,538.6,0.0
54176.0,STARLINK-5154,PAYLOAD,2024-02-23 10:46:34,15.08833901,0.0001639,53.2178,109.495,108.1729,251.9442,1.0754e-05,-1.17e-06,0.0,0 STARLINK-5154,1 54176U 22141V   24054.44901139 -.00000117  00000-0  10754-4 0  9990,2 54176  53.2178 109.4950 0001639 108.1729 251.9442 15.08833901 73359,6917.899,95.438,540.898,538.63,0.0
54176.0,STARLINK-5154,PAYLOAD,2024-02-23 20:18:53,15.08833929,0.0001754,53.2185,107.7105,110.482,249.636,4.9498e-05,5e-06,0.0,0 STARLINK-5154,1 54176U 22141V   24054.84645197  .00000500  00000-0  49498-4 0  9995,2 54176  53.2185 107.7105 0001754 110.4820 249.6360 15.08833929 73416,6917.899,95.438,540.977,538.551,0.0
54176.0,STARLINK-5154,PAYLOAD,2024-02-24 10:37:20,15.08847861,0.0001916,53.2177,105.0339,108.4389,251.6812,7.4282e-05,8.94e-06,0.0,0 STARLINK-5154,1 54176U 22141V   24055.44260397  .00000894  00000-0  74282-4 0  9992,2 54176  53.2177 105.0339 0001916 108.4389 251.6812 15.08847861 73509,6917.856,95.437,541.047,538.396,0.0
54176.0,STARLINK-5154,PAYLOAD,2024-02-24 12:12:44,15.08849986,0.0001871,53.2177,104.7366,108.1053,252.0143,5.546e-05,5.95e-06,0.0,0 STARLINK-5154,1 54176U 22141V   24055.50884295  .00000595  00000-0  55460-4 0  9993,2 54176  53.2177 104.7366 0001871 108.1053 252.0143 15.08849986 73513,6917.85,95.437,541.009,538.421,0.0
54176.0,STARLINK-5154,PAYLOAD,2024-02-24 20:09:39,15.08843657,0.0001514,53.2171,103.2474,89.7739,270.3427,0.00012115,1.641e-05,0.0,0 STARLINK-5154,1 54176U 22141V   24055.84004580  .00001641  00000-0  12115-3 0  9993,2 54176  53.2171 103.2474 0001514  89.7739 270.3427 15.08843657 73562,6917.869,95.437,540.782,538.687,0.0
54176.0,STARLINK-5154,PAYLOAD,2024-02-25 12:03:31,15.08845671,0.0001875,53.2183,100.2699,93.2722,266.8485,0.00014616,2.039e-05,0.0,0 STARLINK-5154,1 54176U 22141V   24056.50244472  .00002039  00000-0  14616-3 0  9993,2 54176  53.2183 100.2699 0001875  93.2722 266.8485 15.08845671 73666,6917.863,95.437,541.025,538.431,0.0
54176.0,STARLINK-5154,PAYLOAD,2024-02-25 20:00:27,15.08839386,0.0001482,53.2158,98.7845,86.2552,273.8609,6.8179e-05,7.97e-06,0.0,0 STARLINK-5154,1 54176U 22141V   24056.83364997  .00000797  00000-0  68179-4 0  9997,2 54176  53.2158  98.7845 0001482  86.2552 273.8609 15.08839386 73717,6917.882,95.438,540.772,538.722,0.0
54176.0,STARLINK-5154,PAYLOAD,2024-02-26 10:18:55,15.08841723,0.0001776,53.2175,96.1087,84.7329,275.3866,7.3984e-06,-1.7e-06,0.0,0 STARLINK-5154,1 54176U 22141V   24057.42981174 -.00000170  00000-0  73984-5 0  9992,2 54176  53.2175  96.1087 0001776  84.7329 275.3866 15.08841723 73807,6917.875,95.437,540.969,538.512,0.0
54176.0,STARLINK-5154,PAYLOAD,2024-02-27 08:34:19,15.08845109,0.0001438,53.2154,91.9444,89.0189,271.0968,0.00010305,1.353e-05,0.0,0 STARLINK-5154,1 54176U 22141V   24058.35716439  .00001353  00000-0  10305-3 0  9994,2 54176  53.2154  91.9444 0001438  89.0189 271.0968 15.08845109 73944,6917.865,95.437,540.725,538.735,0.0
54176.0,STARLINK-5154,PAYLOAD,2024-02-27 19:42:01,15.08844411,0.0001382,53.2158,89.8623,100.0002,260.1146,-2.1399e-06,-3.22e-06,0.0,0 STARLINK-5154,1 54176U 22141V   24058.82084570 -.00000322  00000-0 -21399-5 0  9994,2 54176  53.2158  89.8623 0001382 100.0002 260.1146 15.08844411 74010,6917.867,95.437,540.688,538.776,0.0
54176.0,STARLINK-5154,PAYLOAD,2024-02-28 02:03:34,15.08818271,0.0001553,53.2154,88.6739,97.7046,262.4122,0.00034063,5.134e-05,0.0,0 STARLINK-5154,1 54176U 22141V   24059.08581579  .00005134  00000-0  34063-3 0  9998,2 54176  53.2154  88.6739 0001553  97.7046 262.4122 15.08818271 74059,6917.947,95.439,540.886,538.737,0.0
54176.0,STARLINK-5154,PAYLOAD,2024-02-28 08:25:06,15.08837073,0.000159,53.217,87.4855,88.4801,271.6373,9.6016e-05,1.24e-05,0.0,0 STARLINK-5154,1 54176U 22141V   24059.35077114  .00001240  00000-0  96016-4 0  9994,2 54176  53.2170  87.4855 0001590  88.4801 271.6373 15.08837073 74095,6917.889,95.438,540.854,538.654,0.0
54176.0,STARLINK-5154,PAYLOAD,2024-02-29 08:15:53,15.08848532,0.0001556,53.2168,83.0245,91.0988,269.0182,2.9848e-06,-2.41e-06,0.0,0 STARLINK-5154,1 54176U 22141V   24060.34436629 -.00000241  00000-0  29848-5 0  9996,2 54176  53.2168  83.0245 0001556  91.0988 269.0182 15.08848532 74243,6917.854,95.437,540.796,538.643,0.0
54176.0,STARLINK-5154,PAYLOAD,2024-03-01 06:31:18,15.08832072,0.0001529,53.2162,78.8608,89.0124,271.1043,2.1578e-05,5.5e-07,0.0,0 STARLINK-5154,1 54176U 22141V   24061.27173771  .00000055  00000-0  21578-4 0  9998,2 54176  53.2162  78.8608 0001529  89.0124 271.1043 15.08832072 74388,6917.905,95.438,540.827,538.712,0.0
54176.0,STARLINK-5154,PAYLOAD,2024-03-02 07:57:27,15.08842169,0.0001451,53.2164,74.102,86.9514,273.1644,6.3096e-05,7.16e-06,0.0,0 STARLINK-5154,1 54176U 22141V   24062.33157283  .00000716  00000-0  63096-4 0  9991,2 54176  53.2164  74.1020 0001451  86.9514 273.1644 15.08842169 74545,6917.874,95.437,540.743,538.735,0.0
54176.0,STARLINK-5154,PAYLOAD,2024-03-02 17:29:46,15.08841717,0.0001447,53.2163,72.3184,92.7169,267.3989,4.6318e-05,4.49e-06,0.0,0 STARLINK-5154,1 54176U 22141V   24062.72901334  .00000449  00000-0  46318-4 0  9999,2 54176  53.2163  72.3184 0001447  92.7169 267.3989 15.08841717 74603,6917.875,95.437,540.741,538.739,0.0
54176.0,STARLINK-5154,PAYLOAD,2024-03-03 09:23:38,15.08843131,0.0001724,53.2174,69.3457,112.3824,247.7351,0.00010766,1.426e-05,0.0,0 STARLINK-5154,1 54176U 22141V   24063.39141228  .00001426  00000-0  10766-3 0  9994,2 54176  53.2174  69.3457 0001724 112.3824 247.7351 15.08843131 74707,6917.871,95.437,540.928,538.543,0.0
54176.0,STARLINK-5154,PAYLOAD,2024-03-04 07:39:01,15.08848816,0.0001611,53.2174,65.1798,88.9004,271.2173,0.00011683,1.572e-05,0.0,0 STARLINK-5154,1 54176U 22141V   24064.31876863  .00001572  00000-0  11683-3 0  9998,2 54176  53.2174  65.1798 0001611  88.9004 271.2173 15.08848816 74846,6917.853,95.437,540.833,538.604,0.0
